HAIYANG-3A              
1 58349U 23176A   23325.16281687  .00000125  00000+0  60803-4 0  9990
2 58349  98.6478  32.7330 0013921 289.7213  70.2469 14.34067638   717
YZ-1S R/B               
1 58350U 23176B   23322.04029374  .06309331  31904-5  18329-3 0  9994
2 58350  98.5907  30.0682 0411941 295.9210 163.4597 15.57242460   289
