{
	"ndm": {
		"omm": [
			{
				"header": {
					"CREATION_DATE": "",
					"ORIGINATOR": ""
				},
				"body": {
					"segment": {
						"metadata": {
							"OBJECT_NAME": "HAIYANG-3A",
							"OBJECT_ID": "2023-176A",
							"CENTER_NAME": "EARTH",
							"REF_FRAME": "TEME",
							"TIME_SYSTEM": "UTC",
							"MEAN_ELEMENT_THEORY": "SGP4"
						},
						"data": {
							"meanElements": {
								"EPOCH": "2023-11-21T03:54:27.377568",
								"MEAN_MOTION": 14.34067638,
								"ECCENTRICITY": 0.0013921,
								"INCLINATION": 98.6478,
								"RA_OF_ASC_NODE": 32.733,
								"ARG_OF_PERICENTER": 289.7213,
								"MEAN_ANOMALY": 70.2469
							},
							"tleParameters": {
								"EPHEMERIS_TYPE": 0,
								"CLASSIFICATION_TYPE": "U",
								"NORAD_CAT_ID": 58349,
								"ELEMENT_SET_NO": 999,
								"REV_AT_EPOCH": 71,
								"BSTAR": 0.000060803,
								"MEAN_MOTION_DOT": 0.00000125,
								"MEAN_MOTION_DDOT": 0
							}
						}
					}
				}
			},
			{
				"header": {
					"CREATION_DATE": "",
					"ORIGINATOR": ""
				},
				"body": {
					"segment": {
						"metadata": {
							"OBJECT_NAME": "YZ-1S R/B",
							"OBJECT_ID": "2023-176B",
							"CENTER_NAME": "EARTH",
							"REF_FRAME": "TEME",
							"TIME_SYSTEM": "UTC",
							"MEAN_ELEMENT_THEORY": "SGP4"
						},
						"data": {
							"meanElements": {
								"EPOCH": "2023-11-18T00:58:01.379136",
								"MEAN_MOTION": 15.5724246,
								"ECCENTRICITY": 0.0411941,
								"INCLINATION": 98.5907,
								"RA_OF_ASC_NODE": 30.0682,
								"ARG_OF_PERICENTER": 295.921,
								"MEAN_ANOMALY": 163.4597
							},
							"tleParameters": {
								"EPHEMERIS_TYPE": 0,
								"CLASSIFICATION_TYPE": "U",
								"NORAD_CAT_ID": 58350,
								"ELEMENT_SET_NO": 999,
								"REV_AT_EPOCH": 28,
								"BSTAR": 0.00018329,
								"MEAN_MOTION_DOT": 0.06309331,
								"MEAN_MOTION_DDOT": 0.0000031904
							}
						}
					}
				}
			}
		]
	}
}